STARLINK-4714           
1 53704U 22107E   26068.71241934 -.00000347  00000+0 -37016-5 0  9991
2 53704  53.2168 244.2748 0001272 102.7810 257.3324 15.08835774194691
KUIPER-00148            
1 65769U 25217H   26068.27522507  .00015783  00000+0  98730-3 0  9995
2 65769  51.8794  26.5769 0008108 351.8096   8.2745 15.09536529 25078
